MALLIGYONG-1            
1 58400U 23179A   24091.93559154  .00006450  00000+0  28773-3 0  9990
2 58400  97.4138 339.9403 0010048 163.0657 197.0916 15.21690545 19970
